[{"OBJECT_NAME":"GSAT0101 (GALILEO-PFM)","OBJECT_ID":"2011-060A","EPOCH":"2026-02-22T11:08:37.810464","MEAN_MOTION":1.70475478,"ECCENTRICITY":0.00039756,"INCLINATION":57.0318,"RA_OF_ASC_NODE":344.8758,"ARG_OF_PERICENTER":357.0591,"MEAN_ANOMALY":2.9533,"EPHEMERIS_TYPE":0,"CLASSIFICATION_TYPE":"U","NORAD_CAT_ID":37846,"ELEMENT_SET_NO":999,"REV_AT_EPOCH":8916,"BSTAR":0,"MEAN_MOTION_DOT":-8.2e-7,"MEAN_MOTION_DDOT":0},{"OBJECT_NAME":"GSAT0102 (GALILEO-FM2)","OBJECT_ID":"2011-060B","EPOCH":"2026-03-01T01:30:59.316192","MEAN_MOTION":1.70475778,"ECCENTRICITY":0.00054225,"INCLINATION":57.0301,"RA_OF_ASC_NODE":344.6971,"ARG_OF_PERICENTER":341.2092,"MEAN_ANOMALY":154.1953,"EPHEMERIS_TYPE":0,"CLASSIFICATION_TYPE":"U","NORAD_CAT_ID":37847,"ELEMENT_SET_NO":999,"REV_AT_EPOCH":8928,"BSTAR":0,"MEAN_MOTION_DOT":-1.06e-6,"MEAN_MOTION_DDOT":0},{"OBJECT_NAME":"GSAT0103 (GALILEO-FM3)","OBJECT_ID":"2012-055A","EPOCH":"2026-03-02T03:07:45.751296","MEAN_MOTION":1.70473355,"ECCENTRICITY":0.0005349,"INCLINATION":55.7369,"RA_OF_ASC_NODE":104.4827,"ARG_OF_PERICENTER":284.8926,"MEAN_ANOMALY":75.134,"EPHEMERIS_TYPE":0,"CLASSIFICATION_TYPE":"U","NORAD_CAT_ID":38857,"ELEMENT_SET_NO":999,"REV_AT_EPOCH":8318,"BSTAR":0,"MEAN_MOTION_DOT":1.4e-7,"MEAN_MOTION_DDOT":0},{"OBJECT_NAME":"GSAT0201 (GALILEO 5)","OBJECT_ID":"2014-050A","EPOCH":"2026-02-28T13:00:15.357024","MEAN_MOTION":1.85519933,"ECCENTRICITY":0.16571229,"INCLINATION":48.9916,"RA_OF_ASC_NODE":277.8823,"ARG_OF_PERICENTER":175.1843,"MEAN_ANOMALY":186.6547,"EPHEMERIS_TYPE":0,"CLASSIFICATION_TYPE":"U","NORAD_CAT_ID":40128,"ELEMENT_SET_NO":999,"REV_AT_EPOCH":7630,"BSTAR":0,"MEAN_MOTION_DOT":0,"MEAN_MOTION_DDOT":0},{"OBJECT_NAME":"GSAT0202 (GALILEO 6)","OBJECT_ID":"2014-050B","EPOCH":"2026-02-27T04:20:23.841600","MEAN_MOTION":1.85520639,"ECCENTRICITY":0.16578902,"INCLINATION":49.0095,"RA_OF_ASC_NODE":277.0224,"ARG_OF_PERICENTER":175.8719,"MEAN_ANOMALY":185.7122,"EPHEMERIS_TYPE":0,"CLASSIFICATION_TYPE":"U","NORAD_CAT_ID":40129,"ELEMENT_SET_NO":999,"REV_AT_EPOCH":7844,"BSTAR":0,"MEAN_MOTION_DOT":1.2e-7,"MEAN_MOTION_DDOT":0},{"OBJECT_NAME":"GSAT0203 (GALILEO 7)","OBJECT_ID":"2015-017A","EPOCH":"2026-02-27T12:31:05.039904","MEAN_MOTION":1.70475495,"ECCENTRICITY":0.00051612,"INCLINATION":56.8234,"RA_OF_ASC_NODE":344.5881,"ARG_OF_PERICENTER":295.0116,"MEAN_ANOMALY":64.9415,"EPHEMERIS_TYPE":0,"CLASSIFICATION_TYPE":"U","NORAD_CAT_ID":40544,"ELEMENT_SET_NO":999,"REV_AT_EPOCH":6733,"BSTAR":0,"MEAN_MOTION_DOT":-1.03e-6,"MEAN_MOTION_DDOT":0},{"OBJECT_NAME":"GSAT0204 (GALILEO 8)","OBJECT_ID":"2015-017B","EPOCH":"2026-02-27T04:34:27.961824","MEAN_MOTION":1.7047537,"ECCENTRICITY":0.00043897,"INCLINATION":56.8295,"RA_OF_ASC_NODE":344.6151,"ARG_OF_PERICENTER":286.3298,"MEAN_ANOMALY":73.6287,"EPHEMERIS_TYPE":0,"CLASSIFICATION_TYPE":"U","NORAD_CAT_ID":40545,"ELEMENT_SET_NO":999,"REV_AT_EPOCH":3037,"BSTAR":0,"MEAN_MOTION_DOT":-1.02e-6,"MEAN_MOTION_DDOT":0},{"OBJECT_NAME":"GSAT0205 (GALILEO 9)","OBJECT_ID":"2015-045A","EPOCH":"2026-02-12T22:54:15.154848","MEAN_MOTION":1.674108,"ECCENTRICITY":0.03595998,"INCLINATION":53.6403,"RA_OF_ASC_NODE":225.6057,"ARG_OF_PERICENTER":59.9658,"MEAN_ANOMALY":303.5577,"EPHEMERIS_TYPE":0,"CLASSIFICATION_TYPE":"U","NORAD_CAT_ID":40889,"ELEMENT_SET_NO":999,"REV_AT_EPOCH":6421,"BSTAR":0,"MEAN_MOTION_DOT":7.8e-7,"MEAN_MOTION_DDOT":0},{"OBJECT_NAME":"GSAT0206 (GALILEO 10)","OBJECT_ID":"2015-045B","EPOCH":"2026-03-02T02:41:49.553376","MEAN_MOTION":1.70473619,"ECCENTRICITY":0.0003844,"INCLINATION":54.9813,"RA_OF_ASC_NODE":224.5577,"ARG_OF_PERICENTER":49.8147,"MEAN_ANOMALY":310.1636,"EPHEMERIS_TYPE":0,"CLASSIFICATION_TYPE":"U","NORAD_CAT_ID":40890,"ELEMENT_SET_NO":999,"REV_AT_EPOCH":6521,"BSTAR":0,"MEAN_MOTION_DOT":1.2e-7,"MEAN_MOTION_DDOT":0},{"OBJECT_NAME":"GSAT0208 (GALILEO 11)","OBJECT_ID":"2015-079B","EPOCH":"2026-03-01T07:51:44.683200","MEAN_MOTION":1.70474277,"ECCENTRICITY":0.00040435,"INCLINATION":55.7558,"RA_OF_ASC_NODE":104.217,"ARG_OF_PERICENTER":323.8191,"MEAN_ANOMALY":36.2374,"EPHEMERIS_TYPE":0,"CLASSIFICATION_TYPE":"U","NORAD_CAT_ID":41175,"ELEMENT_SET_NO":999,"REV_AT_EPOCH":6335,"BSTAR":0,"MEAN_MOTION_DOT":1.3e-7,"MEAN_MOTION_DDOT":0},{"OBJECT_NAME":"GSAT0211 (GALILEO 14)","OBJECT_ID":"2016-030A","EPOCH":"2026-03-02T14:59:35.994624","MEAN_MOTION":1.70473766,"ECCENTRICITY":0.00036317,"INCLINATION":55.1322,"RA_OF_ASC_NODE":224.6224,"ARG_OF_PERICENTER":25.7212,"MEAN_ANOMALY":334.2388,"EPHEMERIS_TYPE":0,"CLASSIFICATION_TYPE":"U","NORAD_CAT_ID":41549,"ELEMENT_SET_NO":999,"REV_AT_EPOCH":6085,"BSTAR":0,"MEAN_MOTION_DOT":1.1e-7,"MEAN_MOTION_DDOT":0},{"OBJECT_NAME":"GSAT0210 (GALILEO 13)","OBJECT_ID":"2016-030B","EPOCH":"2026-03-02T07:05:24.262080","MEAN_MOTION":1.70473885,"ECCENTRICITY":0.0001173,"INCLINATION":55.1304,"RA_OF_ASC_NODE":224.6297,"ARG_OF_PERICENTER":192.8511,"MEAN_ANOMALY":167.0898,"EPHEMERIS_TYPE":0,"CLASSIFICATION_TYPE":"U","NORAD_CAT_ID":41550,"ELEMENT_SET_NO":999,"REV_AT_EPOCH":6084,"BSTAR":0,"MEAN_MOTION_DOT":1.2e-7,"MEAN_MOTION_DDOT":0},{"OBJECT_NAME":"GSAT0207 (GALILEO 15)","OBJECT_ID":"2016-069A","EPOCH":"2026-02-28T05:27:34.324704","MEAN_MOTION":1.70474383,"ECCENTRICITY":0.00050316,"INCLINATION":55.4267,"RA_OF_ASC_NODE":104.1007,"ARG_OF_PERICENTER":309.1503,"MEAN_ANOMALY":50.8842,"EPHEMERIS_TYPE":0,"CLASSIFICATION_TYPE":"U","NORAD_CAT_ID":41859,"ELEMENT_SET_NO":999,"REV_AT_EPOCH":5754,"BSTAR":0,"MEAN_MOTION_DOT":8.0e-8,"MEAN_MOTION_DDOT":0},{"OBJECT_NAME":"GSAT0212 (GALILEO 16)","OBJECT_ID":"2016-069B","EPOCH":"2026-02-27T11:52:00.727968","MEAN_MOTION":1.70474549,"ECCENTRICITY":0.00035416,"INCLINATION":55.4238,"RA_OF_ASC_NODE":104.1162,"ARG_OF_PERICENTER":336.342,"MEAN_ANOMALY":23.7177,"EPHEMERIS_TYPE":0,"CLASSIFICATION_TYPE":"U","NORAD_CAT_ID":41860,"ELEMENT_SET_NO":999,"REV_AT_EPOCH":5778,"BSTAR":0,"MEAN_MOTION_DOT":5.0e-8,"MEAN_MOTION_DDOT":0},{"OBJECT_NAME":"GSAT0213 (GALILEO 17)","OBJECT_ID":"2016-069C","EPOCH":"2026-02-27T06:36:27.411264","MEAN_MOTION":1.70474834,"ECCENTRICITY":0.00051302,"INCLINATION":55.426,"RA_OF_ASC_NODE":104.1303,"ARG_OF_PERICENTER":291.6331,"MEAN_ANOMALY":68.3872,"EPHEMERIS_TYPE":0,"CLASSIFICATION_TYPE":"U","NORAD_CAT_ID":41861,"ELEMENT_SET_NO":999,"REV_AT_EPOCH":5764,"BSTAR":0,"MEAN_MOTION_DOT":4.0e-8,"MEAN_MOTION_DDOT":0},{"OBJECT_NAME":"GSAT0214 (GALILEO 18)","OBJECT_ID":"2016-069D","EPOCH":"2026-02-28T00:11:27.536640","MEAN_MOTION":1.70474701,"ECCENTRICITY":0.00041329,"INCLINATION":55.425,"RA_OF_ASC_NODE":104.1026,"ARG_OF_PERICENTER":296.1582,"MEAN_ANOMALY":63.8775,"EPHEMERIS_TYPE":0,"CLASSIFICATION_TYPE":"U","NORAD_CAT_ID":41862,"ELEMENT_SET_NO":999,"REV_AT_EPOCH":5778,"BSTAR":0,"MEAN_MOTION_DOT":7.0e-8,"MEAN_MOTION_DDOT":0}]
